{
  "type": "FeatureCollection",
  "features": [
    {
      "type": "Feature",
      "id": 0,
      "geometry": {
        "type": "LineString",
        "coordinates": [
          [
            37.87780154232777,
            56.011901305768305
          ],
          [
            37.87889588360584,
            56.01507459904399
          ],
          [
            37.88368094448836,
            56.02343929923157
          ],
          [
            37.890719060943454,
            56.0374244737998
          ],
          [
            37.89732802395612,
            56.052653393329365
          ],
          [
            37.89836862117476,
            56.05516947908344
          ]
        ]
      },
      "properties": {
        "description": "Пушкино — ЦКАД, км 35–40",
        "stroke": "#ed4543",
        "stroke-width": "5",
        "stroke-opacity": 0.9,
        "id": "m8-35-40"
      }
    },
    {
      "type": "Feature",
      "id": 0,
      "geometry": {
        "type": "LineString",
        "coordinates": [
          [
            37.89836862117476,
            56.05516947908344
          ],
          [
            37.9021345425108,
            56.06427519343172
          ],
          [
            37.90453780178812,
            56.07080490932429
          ],
          [
            37.90711272244243,
            56.07339728258052
          ],
          [
            37.92316306118751,
            56.08453289418057
          ],
          [
            37.958868627593674,
            56.10621885731084
          ]
        ]
      },
      "properties": {
        "description": "Пушкино — ЦКАД, км 40–47",
        "stroke": "#ed4543",
        "stroke-width": "5",
        "stroke-opacity": 0.9,
        "id": "m8-40-47"
      }
    },
    {
      "type": "Feature",
      "id": 1,
      "geometry": {
        "type": "LineString",
        "coordinates": [
          [
            38.59384406094304,
            56.54517404263257
          ],
          [
            38.60131133084039,
            56.553861583716866
          ],
          [
            38.607405309722274,
            56.56122013051118
          ],
          [
            38.613155965850154,
            56.566006561871596
          ],
          [
            38.62182486538634,
            56.57088714786293
          ],
          [
            38.633669500396124,
            56.57808841098497
          ],
          [
            38.64740241055238,
            56.58680388736723
          ],
          [
            38.68053305630435,
            56.60242985152403
          ],
          [
            38.69941580776917,
            56.6096250830125
          ],
          [
            38.71057379727113,
            56.61416873067982
          ],
          [
            38.717611913726216,
            56.619279678207604
          ],
          [
            38.722933416411756,
            56.624295303064166
          ],
          [
            38.72585165981997,
            56.63214861647593
          ],
          [
            38.7272249508356,
            56.64576974953056
          ],
          [
            38.734263067290584,
            56.66023679310147
          ],
          [
            38.73894083981261,
            56.663923579487914
          ],
          [
            38.74619353298887,
            56.66893324728136
          ],
          [
            38.753617887542084,
            56.67200488264326
          ],
          [
            38.76069891934146,
            56.67526526663416
          ],
          [
            38.769711141631454,
            56.67786392051476
          ],
          [
            38.78661978726132,
            56.68131276495766
          ],
          [
            38.799837713286735,
            56.68627287561037
          ],
          [
            38.80833495144589,
            56.68993348892516
          ],
          [
            38.81666052822813,
            56.692365827921456
          ],
          [
            38.82979262356504,
            56.69647446934954
          ],
          [
            38.83438456539854,
            56.69758419755037
          ],
          [
            38.83689511303647,
            56.69828071230556
          ],
          [
            38.8401137638544,
            56.69839876437785
          ]
        ]
      },
      "properties": {
        "description": "115-135 км (платный дублер, 2028?)",
        "stroke": "#82cdff",
        "stroke-width": "5",
        "stroke-opacity": 0.9,
        "id": "m8-115-135"
      }
    },
    {
      "type": "Feature",
      "id": 2,
      "geometry": {
        "type": "LineString",
        "coordinates": [
          [
            38.84028542523147,
            56.69838165891057
          ],
          [
            38.844201450392795,
            56.69857535165124
          ],
          [
            38.84802628044788,
            56.69898798906138
          ],
          [
            38.85035577897723,
            56.69934266622075
          ],
          [
            38.85298568491629,
            56.6999570442784
          ],
          [
            38.86214945201564,
            56.702481720397934
          ],
          [
            38.86717088256785,
            56.70382932118825
          ],
          [
            38.87408058826654,
            56.70538932789143
          ],
          [
            38.87981012199863,
            56.7067840343674
          ],
          [
            38.88519633297686,
            56.708379324243644
          ],
          [
            38.89449286942157,
            56.71133977080468
          ],
          [
            38.900074546381546,
            56.71306335884925
          ],
          [
            38.909271841094544,
            56.715601479563304
          ],
          [
            38.9342271137691,
            56.72258039338675
          ],
          [
            38.937324258134915,
            56.723556328510384
          ],
          [
            38.939236283432436,
            56.72436428178651
          ],
          [
            38.940878190125524,
            56.72530500619795
          ],
          [
            38.942638120239565,
            56.726664816290004
          ],
          [
            38.943417466548745,
            56.727415177979346
          ],
          [
            38.944204931304505,
            56.72828408496879
          ],
          [
            38.9446096288334,
            56.72880574316571
          ],
          [
            38.944939224509895,
            56.729345087267696
          ],
          [
            38.94518814177462,
            56.72981100426845
          ],
          [
            38.94542631792074,
            56.730435412425074
          ],
          [
            38.94563787066664,
            56.731035851768155
          ],
          [
            38.94591461897698,
            56.7318587218527
          ],
          [
            38.9462698819674,
            56.73286282000867
          ],
          [
            38.9472115124709,
            56.73526176280007
          ],
          [
            38.948056583449876,
            56.73743059115763
          ],
          [
            38.948612181638836,
            56.7390613590178
          ],
          [
            38.94889120624084,
            56.739965157121226
          ],
          [
            38.9489586394912,
            56.740644042384346
          ],
          [
            38.9488979533284,
            56.74111908555503
          ],
          [
            38.948525191869116,
            56.742040514711896
          ],
          [
            38.947949295089295,
            56.743008214179774
          ],
          [
            38.9473580782604,
            56.743612940805185
          ],
          [
            38.946770793816015,
            56.74421007055254
          ],
          [
            38.946172297051696,
            56.74469138669048
          ],
          [
            38.94524269471755,
            56.745215014081815
          ],
          [
            38.94419248551183,
            56.74567136543769
          ],
          [
            38.94248209463864,
            56.74629407374948
          ],
          [
            38.93665183071855,
            56.74828437566404
          ],
          [
            38.92391670231584,
            56.7525990742546
          ],
          [
            38.9202708503976,
            56.753838948315355
          ],
          [
            38.918504980694784,
            56.754462621186356
          ],
          [
            38.917267994253436,
            56.75501609523089
          ],
          [
            38.916477839655784,
            56.75545195692627
          ],
          [
            38.91570914273029,
            56.75601747118965
          ],
          [
            38.91523703796032,
            56.75646846593473
          ],
          [
            38.9145612509224,
            56.757442417094126
          ],
          [
            38.91419220426332,
            56.75807082011063
          ],
          [
            38.91411546334749,
            56.758308878562495
          ],
          [
            38.91409773103005,
            56.75853809582549
          ],
          [
            38.91411300475246,
            56.758839809491974
          ],
          [
            38.91417655823714,
            56.7591562532947
          ],
          [
            38.91425620497589,
            56.75997948675136
          ],
          [
            38.914414045541896,
            56.7604735962012
          ],
          [
            38.91455579285383,
            56.76093234268244
          ],
          [
            38.91507479744326,
            56.76256326724795
          ],
          [
            38.91532332477018,
            56.763362498868695
          ],
          [
            38.91577681031537,
            56.76479471927438
          ],
          [
            38.91626708453244,
            56.76616187173524
          ],
          [
            38.916524906795416,
            56.7670575338638
          ],
          [
            38.91669101749205,
            56.76778948756968
          ],
          [
            38.916747250750184,
            56.76826445359985
          ],
          [
            38.91671099436291,
            56.76880534801435
          ],
          [
            38.91666400913958,
            56.76920484030488
          ],
          [
            38.91650167556137,
            56.76982505241989
          ],
          [
            38.91643169873326,
            56.7700655278527
          ],
          [
            38.916286620052766,
            56.77034134933891
          ],
          [
            38.91596218509402,
            56.77072173774866
          ],
          [
            38.915285853863494,
            56.771280126910696
          ],
          [
            38.914531903051504,
            56.771818381397814
          ],
          [
            38.9141146945103,
            56.772075723760686
          ],
          [
            38.91368943934203,
            56.772325700674145
          ],
          [
            38.913224550153494,
            56.77258578098611
          ],
          [
            38.91261271014518,
            56.77286440968607
          ],
          [
            38.911966810746804,
            56.773115068106144
          ],
          [
            38.911170981797426,
            56.773386193811966
          ],
          [
            38.91024328366593,
            56.773671970012536
          ],
          [
            38.9094161919679,
            56.773915593728944
          ],
          [
            38.9084065648226,
            56.774212057848615
          ],
          [
            38.90713789007589,
            56.77458045060084
          ],
          [
            38.90597697065197,
            56.77491927260747
          ],
          [
            38.904815769190435,
            56.775271287922735
          ],
          [
            38.90348899845843,
            56.775673082422784
          ],
          [
            38.898339260765226,
            56.77722722934352
          ],
          [
            38.895126533794766,
            56.77816788508291
          ],
          [
            38.89273098962206,
            56.7788789529484
          ],
          [
            38.891462775451906,
            56.7792470676445
          ],
          [
            38.89070022587538,
            56.779473683476226
          ],
          [
            38.889328449157766,
            56.77988316689363
          ],
          [
            38.887759210972085,
            56.78034899812153
          ],
          [
            38.88644385980403,
            56.78074414095463
          ],
          [
            38.88485206394742,
            56.78121925674155
          ],
          [
            38.88344705956137,
            56.781644397031
          ],
          [
            38.882994002806754,
            56.781778930112225
          ],
          [
            38.88242146946649,
            56.78193012101609
          ],
          [
            38.88225663189654,
            56.78197530176178
          ]
        ]
      },
      "properties": {
        "description": "Обход Переславля (?)",
        "stroke": "#1e98ff",
        "stroke-width": "5",
        "stroke-opacity": 0.9,
        "id": "m8-pereslavl-bypass"
      }
    },
    {
      "type": "Feature",
      "id": 3,
      "geometry": {
        "type": "LineString",
        "coordinates": [
          [
            38.88226736073256,
            56.78197530168098
          ],
          [
            38.890349351682765,
            56.79544624360314
          ],
          [
            38.89230589837098,
            56.79872532836199
          ],
          [
            38.89289998178928,
            56.79974961539662
          ],
          [
            38.89450622426664,
            56.80240945909606
          ],
          [
            38.89540752842125,
            56.803913354718894
          ],
          [
            38.89632989496118,
            56.805443675558024
          ],
          [
            38.89722649071424,
            56.806935677984875
          ],
          [
            38.89868428468815,
            56.80936630768723
          ],
          [
            38.899459715835555,
            56.81066689441733
          ],
          [
            38.90021125970119,
            56.81193212761484
          ],
          [
            38.90115120290877,
            56.8134738887023
          ],
          [
            38.901888376071284,
            56.81472284502586
          ],
          [
            38.902872777390925,
            56.81633657004857
          ],
          [
            38.90369571371146,
            56.81768986813859
          ],
          [
            38.90436251409462,
            56.81881071482639
          ],
          [
            38.90477063533802,
            56.819502033925495
          ],
          [
            38.90511285130119,
            56.820063905125984
          ],
          [
            38.90549282588327,
            56.82069489698674
          ],
          [
            38.90585552020432,
            56.82125601480439
          ],
          [
            38.90625972037066,
            56.82173574444772
          ],
          [
            38.9065369269942,
            56.82205833535008
          ],
          [
            38.90686241338003,
            56.822389748064815
          ],
          [
            38.90746622305876,
            56.82302118986275
          ],
          [
            38.90814738545399,
            56.82374797265436
          ],
          [
            38.90927738130534,
            56.824913001957185
          ],
          [
            38.91022764932813,
            56.825886569341655
          ],
          [
            38.91092577686177,
            56.82660716931941
          ],
          [
            38.91174451137294,
            56.82745128302034
          ],
          [
            38.91267578421954,
            56.82840419679038
          ],
          [
            38.91333333040833,
            56.829082103648524
          ],
          [
            38.91418120415379,
            56.829957041145114
          ],
          [
            38.91549300328527,
            56.831293670733366
          ],
          [
            38.9161338782942,
            56.8319575564047
          ],
          [
            38.91672006695305,
            56.83256592409338
          ],
          [
            38.917895764699104,
            56.83377417538801
          ],
          [
            38.91908558204827,
            56.83498863617772
          ],
          [
            38.919727574255546,
            56.83565098583828
          ],
          [
            38.92070803865951,
            56.836647061129675
          ],
          [
            38.92132453865672,
            56.837285858510306
          ],
          [
            38.9220464972402,
            56.838021674843326
          ],
          [
            38.92282458865344,
            56.83881848654559
          ],
          [
            38.92344241514851,
            56.839452836454335
          ],
          [
            38.92412958078515,
            56.84015479857255
          ],
          [
            38.92466591675638,
            56.840710478583155
          ],
          [
            38.9252866829368,
            56.84134700132985
          ],
          [
            38.925926915091885,
            56.842006298076
          ],
          [
            38.92668782151379,
            56.84278906001241
          ],
          [
            38.927328626317134,
            56.84343877668576
          ],
          [
            38.928185214820864,
            56.84430455800621
          ],
          [
            38.928776900560464,
            56.844913091754904
          ],
          [
            38.92955903031988,
            56.84571269588077
          ],
          [
            38.93031686982395,
            56.8464755375064
          ],
          [
            38.93111643062815,
            56.84727657790196
          ],
          [
            38.932427526045984,
            56.848589071102715
          ],
          [
            38.9339334789781,
            56.85010139398055
          ],
          [
            38.935752170487135,
            56.851961951941036
          ],
          [
            38.93700976509691,
            56.853237541483225
          ],
          [
            38.93742126802812,
            56.85364019547388
          ],
          [
            38.93776218797154,
            56.853934100746685
          ],
          [
            38.938066222127354,
            56.85415893671333
          ],
          [
            38.93856598563501,
            56.85447414564333
          ],
          [
            38.93911141638505,
            56.854782988373735
          ],
          [
            38.94051784989195,
            56.855546129924676
          ],
          [
            38.94282846308882,
            56.85679367804444
          ],
          [
            38.94429427966852,
            56.85759155794854
          ],
          [
            38.94570146046597,
            56.85835268711967
          ],
          [
            38.94681493076301,
            56.85895805289297
          ],
          [
            38.94800541809584,
            56.85960234522372
          ],
          [
            38.94919040352124,
            56.860245524452004
          ],
          [
            38.95020450943885,
            56.8607926404846
          ],
          [
            38.9516899961793,
            56.861595393367764
          ],
          [
            38.95295815246532,
            56.86229473479197
          ],
          [
            38.95437153381471,
            56.86308074362344
          ],
          [
            38.955581762577886,
            56.86373524860238
          ],
          [
            38.9567821156655,
            56.86437909104574
          ],
          [
            38.958057869196864,
            56.86506993299754
          ],
          [
            38.9590390324049,
            56.86559953308914
          ],
          [
            38.96008262586315,
            56.86615960821217
          ],
          [
            38.961176722713866,
            56.86675401315641
          ],
          [
            38.962213908721154,
            56.867320773200724
          ],
          [
            38.963070208846105,
            56.86779291363071
          ],
          [
            38.963825211149754,
            56.86819482791439
          ],
          [
            38.96442391337424,
            56.86851848953042
          ],
          [
            38.96498612096995,
            56.86879930315795
          ],
          [
            38.96545445125013,
            56.86902870232485
          ],
          [
            38.96594269446193,
            56.86924076966648
          ],
          [
            38.96647247132791,
            56.869449587025564
          ],
          [
            38.96687951683868,
            56.869588765345355
          ],
          [
            38.967445056639995,
            56.86975381324801
          ],
          [
            38.96800523202334,
            56.86988360705228
          ],
          [
            38.96848266522797,
            56.86996366155515
          ],
          [
            38.96891450087932,
            56.87001250206225
          ],
          [
            38.96939595739749,
            56.87005601779918
          ],
          [
            38.96995318632034,
            56.8700851200676
          ],
          [
            38.97056942384153,
            56.87010247125879
          ],
          [
            38.97171346715743,
            56.870113759560496
          ],
          [
            38.97360568444643,
            56.870099533492706
          ],
          [
            38.97632426562505,
            56.87007831586367
          ],
          [
            39.007005697673705,
            56.86976765265157
          ]
        ]
      },
      "properties": {
        "description": "45-160 км (?)",
        "stroke": "#177bc9",
        "stroke-width": "5",
        "stroke-opacity": 0.9,
        "id": "m8-145-160"
      }
    },
    {
      "type": "Feature",
      "id": 4,
      "geometry": {
        "type": "LineString",
        "coordinates": [
          [
            39.08805132526727,
            56.88285226403631
          ],
          [
            39.0978046302733,
            56.89030167113281
          ],
          [
            39.110972975060015,
            56.90031854320364
          ],
          [
            39.11767769568388,
            56.90544923729099
          ],
          [
            39.179236926310914,
            56.951689284314305
          ],
          [
            39.181633440886074,
            56.95352534592623
          ],
          [
            39.18265635154185,
            56.95431382564219
          ],
          [
            39.18343878374815,
            56.954905907204314
          ],
          [
            39.18384360238289,
            56.95518728918305
          ],
          [
            39.18429938298894,
            56.95550384136923
          ],
          [
            39.18486999422014,
            56.95592444124664
          ],
          [
            39.18517375488771,
            56.95616258366484
          ],
          [
            39.185490626212854,
            56.956420691682105
          ],
          [
            39.18588796380845,
            56.95671103817507
          ],
          [
            39.186645691102214,
            56.95728274849665
          ],
          [
            39.19717866374951,
            56.96519401482362
          ],
          [
            39.1981954121194,
            56.96597785141983
          ],
          [
            39.198492285331554,
            56.96619029024352
          ],
          [
            39.19892863341249,
            56.96649502798062
          ],
          [
            39.199506751114946,
            56.966922828649075
          ],
          [
            39.200248030259814,
            56.96750298879869
          ],
          [
            39.20585481297392,
            56.97171327323446
          ],
          [
            39.2167410620102,
            56.97986586150492
          ],
          [
            39.21869412873059,
            56.981331848363496
          ],
          [
            39.22056852722524,
            56.98273133027219
          ],
          [
            39.22111693786946,
            56.983146681047224
          ],
          [
            39.22186597557072,
            56.9836985790441
          ],
          [
            39.222534179167255,
            56.98419052171457
          ],
          [
            39.223186703727244,
            56.98471838090022
          ],
          [
            39.22380423588905,
            56.98532130296284
          ],
          [
            39.22451765914431,
            56.986017931075665
          ],
          [
            39.22506498966135,
            56.986499138153334
          ],
          [
            39.22570887970296,
            56.98698619607461
          ],
          [
            39.226463775636205,
            56.98751753740165
          ],
          [
            39.227317288466416,
            56.988161801408985
          ],
          [
            39.22767762111984,
            56.98846654361318
          ],
          [
            39.22939691709839,
            56.99026455193165
          ],
          [
            39.2296842762985,
            56.990548135622426
          ],
          [
            39.2300199152609,
            56.99083903774212
          ],
          [
            39.23054794760131,
            56.99123627007492
          ],
          [
            39.23134151863424,
            56.991757945310184
          ]
        ]
      },
      "properties": {
        "description": "км 165-180 (2028)",
        "stroke": "#ed4543",
        "stroke-width": "5",
        "stroke-opacity": 0.9,
        "id": "m8-165-180"
      }
    },
    {
      "type": "Feature",
      "id": 5,
      "geometry": {
        "type": "LineString",
        "coordinates": [
          [
            39.231366358292114,
            56.99177639287934
          ],
          [
            39.23211737681629,
            56.992303458265354
          ],
          [
            39.23290058184863,
            56.992930070705185
          ],
          [
            39.23309626967618,
            56.99313148281556
          ],
          [
            39.23605485965011,
            56.99740974826842
          ],
          [
            39.23865558558923,
            57.001494527951856
          ],
          [
            39.238857259668,
            57.001843930106396
          ],
          [
            39.238951645386145,
            57.002298713037845
          ],
          [
            39.238926851659805,
            57.00263326682481
          ],
          [
            39.23806115199308,
            57.00472246354562
          ],
          [
            39.238021372805626,
            57.00498193422763
          ],
          [
            39.23802987338051,
            57.005232621834764
          ],
          [
            39.23798650408848,
            57.006786459018976
          ],
          [
            39.2381362538455,
            57.007994860730285
          ],
          [
            39.238349212243264,
            57.00866814494076
          ],
          [
            39.24047514010648,
            57.01295851795596
          ],
          [
            39.24425169039946,
            57.017266058708685
          ],
          [
            39.24742742587305,
            57.02059001397608
          ],
          [
            39.2489294629214,
            57.0222752857691
          ],
          [
            39.250431499969736,
            57.02391367093366
          ],
          [
            39.25300642062403,
            57.02597325227971
          ],
          [
            39.25465866137716,
            57.027008850736664
          ],
          [
            39.25669714022851,
            57.02799761546548
          ],
          [
            39.25862833071923,
            57.02862362444562
          ],
          [
            39.26098867465235,
            57.02920281960287
          ],
          [
            39.26362796832297,
            57.02971180178058
          ],
          [
            39.26605268527243,
            57.029986766260656
          ],
          [
            39.26947518397543,
            57.03010962207412
          ],
          [
            39.272811851989964,
            57.03018567547006
          ],
          [
            39.27437826205461,
            57.03025002820306
          ],
          [
            39.275451145660575,
            57.03038458358026
          ],
          [
            39.27615388442247,
            57.03048696234023
          ],
          [
            39.276749334823776,
            57.030682943772014
          ],
          [
            39.27752717543807,
            57.03113632965203
          ],
          [
            39.27832647372453,
            57.03148440925744
          ],
          [
            39.28062244464125,
            57.032367756214
          ],
          [
            39.28157731105054,
            57.032692424793154
          ],
          [
            39.28283258486953,
            57.03319258433944
          ],
          [
            39.28348704386919,
            57.03353187000754
          ],
          [
            39.2843721728441,
            57.034087589813964
          ],
          [
            39.28482010174956,
            57.03444734081473
          ],
          [
            39.28513928462235,
            57.03492407863999
          ]
        ]
      },
      "properties": {
        "description": "Обход Петровского (платный, 2028?)",
        "stroke": "#82cdff",
        "stroke-width": "5",
        "stroke-opacity": 0.9,
        "id": "m8-petrovskoe-bypass"
      }
    },
    {
      "type": "Feature",
      "id": 6,
      "geometry": {
        "type": "LineString",
        "coordinates": [
          [
            39.318607888709785,
            57.11416851080964
          ],
          [
            39.319519839774856,
            57.116549920286104
          ],
          [
            39.322062573920945,
            57.12284123817881
          ],
          [
            39.32233079482242,
            57.12326723482761
          ],
          [
            39.32275994826481,
            57.12373407482868
          ],
          [
            39.32449801970646,
            57.125481754611194
          ],
          [
            39.32497903508163,
            57.125952179399015
          ],
          [
            39.32539924193545,
            57.12634826964246
          ],
          [
            39.325951776992504,
            57.12682674058744
          ],
          [
            39.32653113413976,
            57.127246856320944
          ],
          [
            39.32910069037601,
            57.12909647557746
          ],
          [
            39.32990334024726,
            57.129698131165476
          ],
          [
            39.33046224613899,
            57.13014120439699
          ],
          [
            39.3310050587766,
            57.130601775446685
          ],
          [
            39.33125973337091,
            57.13085227105328
          ],
          [
            39.3315144079653,
            57.131143605032214
          ],
          [
            39.332877240668985,
            57.1329383692332
          ],
          [
            39.33367477868657,
            57.13401979823025
          ],
          [
            39.335023007880864,
            57.13584650696389
          ],
          [
            39.33604615352714,
            57.137220866536985
          ],
          [
            39.336472796129826,
            57.137807111455864
          ],
          [
            39.336689390770005,
            57.1381387993743
          ],
          [
            39.336832479984444,
            57.13842065195706
          ],
          [
            39.336975569199005,
            57.13873166786315
          ],
          [
            39.33735457860566,
            57.13990912823889
          ],
          [
            39.33780813646254,
            57.14133248112083
          ],
          [
            39.33828262292481,
            57.14252800908296
          ],
          [
            39.33924285375215,
            57.144785113434786
          ],
          [
            39.33972565137483,
            57.14550391674122
          ],
          [
            39.34020844899756,
            57.14608274006038
          ],
          [
            39.34261170827489,
            57.148508741873634
          ],
          [
            39.345100798240686,
            57.151027882405245
          ],
          [
            39.347504057518016,
            57.15350020474484
          ],
          [
            39.349231400123585,
            57.15524647395638
          ],
          [
            39.349950232139605,
            57.15599422503157
          ],
          [
            39.35023722850419,
            57.156324367602394
          ],
          [
            39.35048130952455,
            57.156683658489165
          ],
          [
            39.350856818786596,
            57.157440125586696
          ],
          [
            39.351146497360205,
            57.15819657716642
          ],
          [
            39.35144422256082,
            57.1590244292852
          ],
          [
            39.35179022752378,
            57.15981145454862
          ],
          [
            39.35199028358749,
            57.16021702250846
          ],
          [
            39.35224398383155,
            57.16067505261602
          ],
          [
            39.35290602647398,
            57.161729393849726
          ],
          [
            39.35372678243253,
            57.16283988750633
          ],
          [
            39.35449925862881,
            57.16386582565073
          ]
        ]
      },
      "properties": {
        "description": "км 195–201, подход к Ростову (2027)",
        "stroke": "#ed4543",
        "stroke-width": "5",
        "stroke-opacity": 0.9,
        "id": "m8-195-201"
      }
    }
  ]
}